STARLINK-36083          
1 66857U 25281K   25361.83336806 -.00139641  00000+0 -24132-2 0  9993
2 66857  43.0007  31.3490 0001135 269.0146  41.1417 15.50624719  3816
STARLINK-35118          
1 66858U 25281L   25361.83336806 -.00102242  00000+0 -17579-2 0  9998
2 66858  43.0008  31.3439 0001357 251.0956  60.9717 15.50608493  3595
STARLINK-35646          
1 66859U 25281M   25361.83336806 -.00104010  00000+0 -17889-2 0  9998
2 66859  43.0007  31.3388 0001000 262.4446  51.5447 15.50608538  3814
STARLINK-35987          
1 66860U 25281N   25361.83336806 -.00090518  00000+0 -15538-2 0  9996
2 66860  43.0007  31.3147 0001447 264.8540  58.7222 15.50600475  3817
STARLINK-35991          
1 66861U 25281P   25361.83336806 -.00090977  00000+0 -15617-2 0  9994
2 66861  43.0007  31.3298 0000972 254.3843  63.4328 15.50603743  3818
STARLINK-35974          
1 66862U 25281Q   25361.83336806 -.00132196  00000+0 -22823-2 0  9992
2 66862  43.0007  31.3351 0001113 271.0184  44.8874 15.50622460  3716
STARLINK-36134          
1 66863U 25281R   25361.83336806 -.00084717  00000+0 -14529-2 0  9992
2 66863  43.0006  31.3251 0000989 256.6776  63.0631 15.50599005  3814
STARLINK-36070          
1 66864U 25281S   25361.83336806 -.00108910  00000+0 -18744-2 0  9998
2 66864  43.0008  31.3199 0001015 267.9769  53.6786 15.50612188  3843
STARLINK-36117          
1 66865U 25281T   25361.83336806 -.00124096  00000+0 -21401-2 0  9996
2 66865  43.0007  31.3115 0001303 266.2594  59.2285 15.50619098  3819
STARLINK-36126          
1 66866U 25281U   25361.83336806 -.00069633  00000+0 -11909-2 0  9994
2 66866  43.0009  31.3060 0001031 266.8049  60.6045 15.50597030  3844
STARLINK-36101          
1 66867U 25281V   25361.83336806 -.00101393  00000+0 -17433-2 0  9993
2 66867  43.0007  31.3011 0001074 250.0653  79.2602 15.50606680  3647
STARLINK-36108          
1 66868U 25281W   25361.83336806 -.00086349  00000+0 -14813-2 0  9996
2 66868  43.0006  31.2953 0001165 260.8724  70.3751 15.50598012  3646
