CCSDS_OMM_VERS = 2.0
CREATION_DATE  = 
ORIGINATOR     = 

OBJECT_NAME    = STARLINK-36083
OBJECT_ID      = 2025-281K
CENTER_NAME    = EARTH
REF_FRAME      = TEME
TIME_SYSTEM    = UTC
MEAN_ELEMENT_THEORY = SGP/SGP4

EPOCH          = 2025-12-27T20:00:03.000384
MEAN_MOTION    = 15.50624719
ECCENTRICITY   = .0001135
INCLINATION    = 43.0007
RA_OF_ASC_NODE = 31.3490
ARG_OF_PERICENTER = 269.0146
MEAN_ANOMALY   = 41.1417

EPHEMERIS_TYPE = 0
CLASSIFICATION_TYPE = U
NORAD_CAT_ID   = 66857
ELEMENT_SET_NO = 999
REV_AT_EPOCH   = 381
BSTAR          = -.24132E-2
MEAN_MOTION_DOT = -.139641E-2
MEAN_MOTION_DDOT = 0

CCSDS_OMM_VERS = 2.0
CREATION_DATE  = 
ORIGINATOR     = 

OBJECT_NAME    = STARLINK-35118
OBJECT_ID      = 2025-281L
CENTER_NAME    = EARTH
REF_FRAME      = TEME
TIME_SYSTEM    = UTC
MEAN_ELEMENT_THEORY = SGP/SGP4

EPOCH          = 2025-12-27T20:00:03.000384
MEAN_MOTION    = 15.50608493
ECCENTRICITY   = .0001357
INCLINATION    = 43.0008
RA_OF_ASC_NODE = 31.3439
ARG_OF_PERICENTER = 251.0956
MEAN_ANOMALY   = 60.9717

EPHEMERIS_TYPE = 0
CLASSIFICATION_TYPE = U
NORAD_CAT_ID   = 66858
ELEMENT_SET_NO = 999
REV_AT_EPOCH   = 359
BSTAR          = -.17579E-2
MEAN_MOTION_DOT = -.102242E-2
MEAN_MOTION_DDOT = 0

CCSDS_OMM_VERS = 2.0
CREATION_DATE  = 
ORIGINATOR     = 

OBJECT_NAME    = STARLINK-35646
OBJECT_ID      = 2025-281M
CENTER_NAME    = EARTH
REF_FRAME      = TEME
TIME_SYSTEM    = UTC
MEAN_ELEMENT_THEORY = SGP/SGP4

EPOCH          = 2025-12-27T20:00:03.000384
MEAN_MOTION    = 15.50608538
ECCENTRICITY   = .0001
INCLINATION    = 43.0007
RA_OF_ASC_NODE = 31.3388
ARG_OF_PERICENTER = 262.4446
MEAN_ANOMALY   = 51.5447

EPHEMERIS_TYPE = 0
CLASSIFICATION_TYPE = U
NORAD_CAT_ID   = 66859
ELEMENT_SET_NO = 999
REV_AT_EPOCH   = 381
BSTAR          = -.17889E-2
MEAN_MOTION_DOT = -.10401E-2
MEAN_MOTION_DDOT = 0

CCSDS_OMM_VERS = 2.0
CREATION_DATE  = 
ORIGINATOR     = 

OBJECT_NAME    = STARLINK-35987
OBJECT_ID      = 2025-281N
CENTER_NAME    = EARTH
REF_FRAME      = TEME
TIME_SYSTEM    = UTC
MEAN_ELEMENT_THEORY = SGP/SGP4

EPOCH          = 2025-12-27T20:00:03.000384
MEAN_MOTION    = 15.50600475
ECCENTRICITY   = .0001447
INCLINATION    = 43.0007
RA_OF_ASC_NODE = 31.3147
ARG_OF_PERICENTER = 264.8540
MEAN_ANOMALY   = 58.7222

EPHEMERIS_TYPE = 0
CLASSIFICATION_TYPE = U
NORAD_CAT_ID   = 66860
ELEMENT_SET_NO = 999
REV_AT_EPOCH   = 381
BSTAR          = -.15538E-2
MEAN_MOTION_DOT = -.90518E-3
MEAN_MOTION_DDOT = 0

CCSDS_OMM_VERS = 2.0
CREATION_DATE  = 
ORIGINATOR     = 

OBJECT_NAME    = STARLINK-35991
OBJECT_ID      = 2025-281P
CENTER_NAME    = EARTH
REF_FRAME      = TEME
TIME_SYSTEM    = UTC
MEAN_ELEMENT_THEORY = SGP/SGP4

EPOCH          = 2025-12-27T20:00:03.000384
MEAN_MOTION    = 15.50603743
ECCENTRICITY   = .0000972
INCLINATION    = 43.0007
RA_OF_ASC_NODE = 31.3298
ARG_OF_PERICENTER = 254.3843
MEAN_ANOMALY   = 63.4328

EPHEMERIS_TYPE = 0
CLASSIFICATION_TYPE = U
NORAD_CAT_ID   = 66861
ELEMENT_SET_NO = 999
REV_AT_EPOCH   = 381
BSTAR          = -.15617E-2
MEAN_MOTION_DOT = -.90977E-3
MEAN_MOTION_DDOT = 0

CCSDS_OMM_VERS = 2.0
CREATION_DATE  = 
ORIGINATOR     = 

OBJECT_NAME    = STARLINK-35974
OBJECT_ID      = 2025-281Q
CENTER_NAME    = EARTH
REF_FRAME      = TEME
TIME_SYSTEM    = UTC
MEAN_ELEMENT_THEORY = SGP/SGP4

EPOCH          = 2025-12-27T20:00:03.000384
MEAN_MOTION    = 15.50622460
ECCENTRICITY   = .0001113
INCLINATION    = 43.0007
RA_OF_ASC_NODE = 31.3351
ARG_OF_PERICENTER = 271.0184
MEAN_ANOMALY   = 44.8874

EPHEMERIS_TYPE = 0
CLASSIFICATION_TYPE = U
NORAD_CAT_ID   = 66862
ELEMENT_SET_NO = 999
REV_AT_EPOCH   = 371
BSTAR          = -.22823E-2
MEAN_MOTION_DOT = -.132196E-2
MEAN_MOTION_DDOT = 0

CCSDS_OMM_VERS = 2.0
CREATION_DATE  = 
ORIGINATOR     = 

OBJECT_NAME    = STARLINK-36134
OBJECT_ID      = 2025-281R
CENTER_NAME    = EARTH
REF_FRAME      = TEME
TIME_SYSTEM    = UTC
MEAN_ELEMENT_THEORY = SGP/SGP4

EPOCH          = 2025-12-27T20:00:03.000384
MEAN_MOTION    = 15.50599005
ECCENTRICITY   = .0000989
INCLINATION    = 43.0006
RA_OF_ASC_NODE = 31.3251
ARG_OF_PERICENTER = 256.6776
MEAN_ANOMALY   = 63.0631

EPHEMERIS_TYPE = 0
CLASSIFICATION_TYPE = U
NORAD_CAT_ID   = 66863
ELEMENT_SET_NO = 999
REV_AT_EPOCH   = 381
BSTAR          = -.14529E-2
MEAN_MOTION_DOT = -.84717E-3
MEAN_MOTION_DDOT = 0

CCSDS_OMM_VERS = 2.0
CREATION_DATE  = 
ORIGINATOR     = 

OBJECT_NAME    = STARLINK-36070
OBJECT_ID      = 2025-281S
CENTER_NAME    = EARTH
REF_FRAME      = TEME
TIME_SYSTEM    = UTC
MEAN_ELEMENT_THEORY = SGP/SGP4

EPOCH          = 2025-12-27T20:00:03.000384
MEAN_MOTION    = 15.50612188
ECCENTRICITY   = .0001015
INCLINATION    = 43.0008
RA_OF_ASC_NODE = 31.3199
ARG_OF_PERICENTER = 267.9769
MEAN_ANOMALY   = 53.6786

EPHEMERIS_TYPE = 0
CLASSIFICATION_TYPE = U
NORAD_CAT_ID   = 66864
ELEMENT_SET_NO = 999
REV_AT_EPOCH   = 384
BSTAR          = -.18744E-2
MEAN_MOTION_DOT = -.10891E-2
MEAN_MOTION_DDOT = 0

CCSDS_OMM_VERS = 2.0
CREATION_DATE  = 
ORIGINATOR     = 

OBJECT_NAME    = STARLINK-36117
OBJECT_ID      = 2025-281T
CENTER_NAME    = EARTH
REF_FRAME      = TEME
TIME_SYSTEM    = UTC
MEAN_ELEMENT_THEORY = SGP/SGP4

EPOCH          = 2025-12-27T20:00:03.000384
MEAN_MOTION    = 15.50619098
ECCENTRICITY   = .0001303
INCLINATION    = 43.0007
RA_OF_ASC_NODE = 31.3115
ARG_OF_PERICENTER = 266.2594
MEAN_ANOMALY   = 59.2285

EPHEMERIS_TYPE = 0
CLASSIFICATION_TYPE = U
NORAD_CAT_ID   = 66865
ELEMENT_SET_NO = 999
REV_AT_EPOCH   = 381
BSTAR          = -.21401E-2
MEAN_MOTION_DOT = -.124096E-2
MEAN_MOTION_DDOT = 0

CCSDS_OMM_VERS = 2.0
CREATION_DATE  = 
ORIGINATOR     = 

OBJECT_NAME    = STARLINK-36126
OBJECT_ID      = 2025-281U
CENTER_NAME    = EARTH
REF_FRAME      = TEME
TIME_SYSTEM    = UTC
MEAN_ELEMENT_THEORY = SGP/SGP4

EPOCH          = 2025-12-27T20:00:03.000384
MEAN_MOTION    = 15.50597030
ECCENTRICITY   = .0001031
INCLINATION    = 43.0009
RA_OF_ASC_NODE = 31.3060
ARG_OF_PERICENTER = 266.8049
MEAN_ANOMALY   = 60.6045

EPHEMERIS_TYPE = 0
CLASSIFICATION_TYPE = U
NORAD_CAT_ID   = 66866
ELEMENT_SET_NO = 999
REV_AT_EPOCH   = 384
BSTAR          = -.11909E-2
MEAN_MOTION_DOT = -.69633E-3
MEAN_MOTION_DDOT = 0

CCSDS_OMM_VERS = 2.0
CREATION_DATE  = 
ORIGINATOR     = 

OBJECT_NAME    = STARLINK-36101
OBJECT_ID      = 2025-281V
CENTER_NAME    = EARTH
REF_FRAME      = TEME
TIME_SYSTEM    = UTC
MEAN_ELEMENT_THEORY = SGP/SGP4

EPOCH          = 2025-12-27T20:00:03.000384
MEAN_MOTION    = 15.50606680
ECCENTRICITY   = .0001074
INCLINATION    = 43.0007
RA_OF_ASC_NODE = 31.3011
ARG_OF_PERICENTER = 250.0653
MEAN_ANOMALY   = 79.2602

EPHEMERIS_TYPE = 0
CLASSIFICATION_TYPE = U
NORAD_CAT_ID   = 66867
ELEMENT_SET_NO = 999
REV_AT_EPOCH   = 364
BSTAR          = -.17433E-2
MEAN_MOTION_DOT = -.101393E-2
MEAN_MOTION_DDOT = 0

CCSDS_OMM_VERS = 2.0
CREATION_DATE  = 
ORIGINATOR     = 

OBJECT_NAME    = STARLINK-36108
OBJECT_ID      = 2025-281W
CENTER_NAME    = EARTH
REF_FRAME      = TEME
TIME_SYSTEM    = UTC
MEAN_ELEMENT_THEORY = SGP/SGP4

EPOCH          = 2025-12-27T20:00:03.000384
MEAN_MOTION    = 15.50598012
ECCENTRICITY   = .0001165
INCLINATION    = 43.0006
RA_OF_ASC_NODE = 31.2953
ARG_OF_PERICENTER = 260.8724
MEAN_ANOMALY   = 70.3751

EPHEMERIS_TYPE = 0
CLASSIFICATION_TYPE = U
NORAD_CAT_ID   = 66868
ELEMENT_SET_NO = 999
REV_AT_EPOCH   = 364
BSTAR          = -.14813E-2
MEAN_MOTION_DOT = -.86349E-3
MEAN_MOTION_DDOT = 0

